; Ender 5 Pro first layer commissioning test
M140 S60
M104 S150
M190 S60
G28
BED_MESH_PROFILE LOAD=default
M109 S220
G90
M83
G92 E0
G1 Z5 F3000
G1 X25 Y25 F6000
G1 Z0.2 F600
G1 X185.0 Y25.0 E5.3216 F1200
G1 X185.0 Y185.0 E5.3216 F1200
G1 X25.0 Y185.0 E5.3216 F1200
G1 X25.0 Y25.0 E5.3216 F1200
G1 X25.0 Y25.4 F6000
G1 X185.0 Y25.4 E5.3216 F1200
G1 X185.0 Y25.8 F6000
G1 X25.0 Y25.8 E5.3216 F1200
G1 X25.0 Y26.2 F6000
G1 X185.0 Y26.2 E5.3216 F1200
G1 X185.0 Y26.6 F6000
G1 X25.0 Y26.6 E5.3216 F1200
G1 X25.0 Y27.0 F6000
G1 X185.0 Y27.0 E5.3216 F1200
G1 X185.0 Y27.4 F6000
G1 X25.0 Y27.4 E5.3216 F1200
G1 X25.0 Y27.8 F6000
G1 X185.0 Y27.8 E5.3216 F1200
G1 X185.0 Y28.2 F6000
G1 X25.0 Y28.2 E5.3216 F1200
G1 X25.0 Y28.6 F6000
G1 X185.0 Y28.6 E5.3216 F1200
G1 X185.0 Y29.0 F6000
G1 X25.0 Y29.0 E5.3216 F1200
G1 X25.0 Y29.4 F6000
G1 X185.0 Y29.4 E5.3216 F1200
G1 X185.0 Y29.8 F6000
G1 X25.0 Y29.8 E5.3216 F1200
G1 X25.0 Y30.2 F6000
G1 X185.0 Y30.2 E5.3216 F1200
G1 X185.0 Y30.6 F6000
G1 X25.0 Y30.6 E5.3216 F1200
G1 X25.0 Y31.0 F6000
G1 X185.0 Y31.0 E5.3216 F1200
G1 X185.0 Y31.4 F6000
G1 X25.0 Y31.4 E5.3216 F1200
G1 X25.0 Y31.8 F6000
G1 X185.0 Y31.8 E5.3216 F1200
G1 X185.0 Y32.2 F6000
G1 X25.0 Y32.2 E5.3216 F1200
G1 X25.0 Y32.6 F6000
G1 X185.0 Y32.6 E5.3216 F1200
G1 X185.0 Y33.0 F6000
G1 X25.0 Y33.0 E5.3216 F1200
G1 X25.0 Y33.4 F6000
G1 X185.0 Y33.4 E5.3216 F1200
G1 X185.0 Y33.8 F6000
G1 X25.0 Y33.8 E5.3216 F1200
G1 X25.0 Y34.2 F6000
G1 X185.0 Y34.2 E5.3216 F1200
G1 X185.0 Y34.6 F6000
G1 X25.0 Y34.6 E5.3216 F1200
G1 X25.0 Y35.0 F6000
G1 X185.0 Y35.0 E5.3216 F1200
G1 X185.0 Y35.4 F6000
G1 X25.0 Y35.4 E5.3216 F1200
G1 X25.0 Y35.8 F6000
G1 X185.0 Y35.8 E5.3216 F1200
G1 X185.0 Y36.2 F6000
G1 X25.0 Y36.2 E5.3216 F1200
G1 X25.0 Y36.6 F6000
G1 X185.0 Y36.6 E5.3216 F1200
G1 X185.0 Y37.0 F6000
G1 X25.0 Y37.0 E5.3216 F1200
G1 X25.0 Y37.4 F6000
G1 X185.0 Y37.4 E5.3216 F1200
G1 X185.0 Y37.8 F6000
G1 X25.0 Y37.8 E5.3216 F1200
G1 X25.0 Y38.2 F6000
G1 X185.0 Y38.2 E5.3216 F1200
G1 X185.0 Y38.6 F6000
G1 X25.0 Y38.6 E5.3216 F1200
G1 X25.0 Y39.0 F6000
G1 X185.0 Y39.0 E5.3216 F1200
G1 X185.0 Y39.4 F6000
G1 X25.0 Y39.4 E5.3216 F1200
G1 X25.0 Y39.8 F6000
G1 X185.0 Y39.8 E5.3216 F1200
G1 X185.0 Y40.2 F6000
G1 X25.0 Y40.2 E5.3216 F1200
G1 X25.0 Y40.6 F6000
G1 X185.0 Y40.6 E5.3216 F1200
G1 X185.0 Y41.0 F6000
G1 X25.0 Y41.0 E5.3216 F1200
G1 X25.0 Y41.4 F6000
G1 X185.0 Y41.4 E5.3216 F1200
G1 X185.0 Y41.8 F6000
G1 X25.0 Y41.8 E5.3216 F1200
G1 X25.0 Y42.2 F6000
G1 X185.0 Y42.2 E5.3216 F1200
G1 X185.0 Y42.6 F6000
G1 X25.0 Y42.6 E5.3216 F1200
G1 X25.0 Y43.0 F6000
G1 X185.0 Y43.0 E5.3216 F1200
G1 X185.0 Y43.4 F6000
G1 X25.0 Y43.4 E5.3216 F1200
G1 X25.0 Y43.8 F6000
G1 X185.0 Y43.8 E5.3216 F1200
G1 X185.0 Y44.2 F6000
G1 X25.0 Y44.2 E5.3216 F1200
G1 X25.0 Y44.6 F6000
G1 X185.0 Y44.6 E5.3216 F1200
G1 X185.0 Y45.0 F6000
G1 X25.0 Y45.0 E5.3216 F1200
G1 X25.0 Y45.4 F6000
G1 X185.0 Y45.4 E5.3216 F1200
G1 X185.0 Y45.8 F6000
G1 X25.0 Y45.8 E5.3216 F1200
G1 X25.0 Y46.2 F6000
G1 X185.0 Y46.2 E5.3216 F1200
G1 X185.0 Y46.6 F6000
G1 X25.0 Y46.6 E5.3216 F1200
G1 X25.0 Y47.0 F6000
G1 X185.0 Y47.0 E5.3216 F1200
G1 X185.0 Y47.4 F6000
G1 X25.0 Y47.4 E5.3216 F1200
G1 X25.0 Y47.8 F6000
G1 X185.0 Y47.8 E5.3216 F1200
G1 X185.0 Y48.2 F6000
G1 X25.0 Y48.2 E5.3216 F1200
G1 X25.0 Y48.6 F6000
G1 X185.0 Y48.6 E5.3216 F1200
G1 X185.0 Y49.0 F6000
G1 X25.0 Y49.0 E5.3216 F1200
G1 X25.0 Y49.4 F6000
G1 X185.0 Y49.4 E5.3216 F1200
G1 X185.0 Y49.8 F6000
G1 X25.0 Y49.8 E5.3216 F1200
G1 X25.0 Y50.2 F6000
G1 X185.0 Y50.2 E5.3216 F1200
G1 X185.0 Y50.6 F6000
G1 X25.0 Y50.6 E5.3216 F1200
G1 X25.0 Y51.0 F6000
G1 X185.0 Y51.0 E5.3216 F1200
G1 X185.0 Y51.4 F6000
G1 X25.0 Y51.4 E5.3216 F1200
G1 X25.0 Y51.8 F6000
G1 X185.0 Y51.8 E5.3216 F1200
G1 X185.0 Y52.2 F6000
G1 X25.0 Y52.2 E5.3216 F1200
G1 X25.0 Y52.6 F6000
G1 X185.0 Y52.6 E5.3216 F1200
G1 X185.0 Y53.0 F6000
G1 X25.0 Y53.0 E5.3216 F1200
G1 X25.0 Y53.4 F6000
G1 X185.0 Y53.4 E5.3216 F1200
G1 X185.0 Y53.8 F6000
G1 X25.0 Y53.8 E5.3216 F1200
G1 X25.0 Y54.2 F6000
G1 X185.0 Y54.2 E5.3216 F1200
G1 X185.0 Y54.6 F6000
G1 X25.0 Y54.6 E5.3216 F1200
G1 X25.0 Y55.0 F6000
G1 X185.0 Y55.0 E5.3216 F1200
G1 X185.0 Y55.4 F6000
G1 X25.0 Y55.4 E5.3216 F1200
G1 X25.0 Y55.8 F6000
G1 X185.0 Y55.8 E5.3216 F1200
G1 X185.0 Y56.2 F6000
G1 X25.0 Y56.2 E5.3216 F1200
G1 X25.0 Y56.6 F6000
G1 X185.0 Y56.6 E5.3216 F1200
G1 X185.0 Y57.0 F6000
G1 X25.0 Y57.0 E5.3216 F1200
G1 X25.0 Y57.4 F6000
G1 X185.0 Y57.4 E5.3216 F1200
G1 X185.0 Y57.8 F6000
G1 X25.0 Y57.8 E5.3216 F1200
G1 X25.0 Y58.2 F6000
G1 X185.0 Y58.2 E5.3216 F1200
G1 X185.0 Y58.6 F6000
G1 X25.0 Y58.6 E5.3216 F1200
G1 X25.0 Y59.0 F6000
G1 X185.0 Y59.0 E5.3216 F1200
G1 X185.0 Y59.4 F6000
G1 X25.0 Y59.4 E5.3216 F1200
G1 X25.0 Y59.8 F6000
G1 X185.0 Y59.8 E5.3216 F1200
G1 X185.0 Y60.2 F6000
G1 X25.0 Y60.2 E5.3216 F1200
G1 X25.0 Y60.6 F6000
G1 X185.0 Y60.6 E5.3216 F1200
G1 X185.0 Y61.0 F6000
G1 X25.0 Y61.0 E5.3216 F1200
G1 X25.0 Y61.4 F6000
G1 X185.0 Y61.4 E5.3216 F1200
G1 X185.0 Y61.8 F6000
G1 X25.0 Y61.8 E5.3216 F1200
G1 X25.0 Y62.2 F6000
G1 X185.0 Y62.2 E5.3216 F1200
G1 X185.0 Y62.6 F6000
G1 X25.0 Y62.6 E5.3216 F1200
G1 X25.0 Y63.0 F6000
G1 X185.0 Y63.0 E5.3216 F1200
G1 X185.0 Y63.4 F6000
G1 X25.0 Y63.4 E5.3216 F1200
G1 X25.0 Y63.8 F6000
G1 X185.0 Y63.8 E5.3216 F1200
G1 X185.0 Y64.2 F6000
G1 X25.0 Y64.2 E5.3216 F1200
G1 X25.0 Y64.6 F6000
G1 X185.0 Y64.6 E5.3216 F1200
G1 X185.0 Y65.0 F6000
G1 X25.0 Y65.0 E5.3216 F1200
G1 X25.0 Y65.4 F6000
G1 X185.0 Y65.4 E5.3216 F1200
G1 X185.0 Y65.8 F6000
G1 X25.0 Y65.8 E5.3216 F1200
G1 X25.0 Y66.2 F6000
G1 X185.0 Y66.2 E5.3216 F1200
G1 X185.0 Y66.6 F6000
G1 X25.0 Y66.6 E5.3216 F1200
G1 X25.0 Y67.0 F6000
G1 X185.0 Y67.0 E5.3216 F1200
G1 X185.0 Y67.4 F6000
G1 X25.0 Y67.4 E5.3216 F1200
G1 X25.0 Y67.8 F6000
G1 X185.0 Y67.8 E5.3216 F1200
G1 X185.0 Y68.2 F6000
G1 X25.0 Y68.2 E5.3216 F1200
G1 X25.0 Y68.6 F6000
G1 X185.0 Y68.6 E5.3216 F1200
G1 X185.0 Y69.0 F6000
G1 X25.0 Y69.0 E5.3216 F1200
G1 X25.0 Y69.4 F6000
G1 X185.0 Y69.4 E5.3216 F1200
G1 X185.0 Y69.8 F6000
G1 X25.0 Y69.8 E5.3216 F1200
G1 X25.0 Y70.2 F6000
G1 X185.0 Y70.2 E5.3216 F1200
G1 X185.0 Y70.6 F6000
G1 X25.0 Y70.6 E5.3216 F1200
G1 X25.0 Y71.0 F6000
G1 X185.0 Y71.0 E5.3216 F1200
G1 X185.0 Y71.4 F6000
G1 X25.0 Y71.4 E5.3216 F1200
G1 X25.0 Y71.8 F6000
G1 X185.0 Y71.8 E5.3216 F1200
G1 X185.0 Y72.2 F6000
G1 X25.0 Y72.2 E5.3216 F1200
G1 X25.0 Y72.6 F6000
G1 X185.0 Y72.6 E5.3216 F1200
G1 X185.0 Y73.0 F6000
G1 X25.0 Y73.0 E5.3216 F1200
G1 X25.0 Y73.4 F6000
G1 X185.0 Y73.4 E5.3216 F1200
G1 X185.0 Y73.8 F6000
G1 X25.0 Y73.8 E5.3216 F1200
G1 X25.0 Y74.2 F6000
G1 X185.0 Y74.2 E5.3216 F1200
G1 X185.0 Y74.6 F6000
G1 X25.0 Y74.6 E5.3216 F1200
G1 X25.0 Y75.0 F6000
G1 X185.0 Y75.0 E5.3216 F1200
G1 X185.0 Y75.4 F6000
G1 X25.0 Y75.4 E5.3216 F1200
G1 X25.0 Y75.8 F6000
G1 X185.0 Y75.8 E5.3216 F1200
G1 X185.0 Y76.2 F6000
G1 X25.0 Y76.2 E5.3216 F1200
G1 X25.0 Y76.6 F6000
G1 X185.0 Y76.6 E5.3216 F1200
G1 X185.0 Y77.0 F6000
G1 X25.0 Y77.0 E5.3216 F1200
G1 X25.0 Y77.4 F6000
G1 X185.0 Y77.4 E5.3216 F1200
G1 X185.0 Y77.8 F6000
G1 X25.0 Y77.8 E5.3216 F1200
G1 X25.0 Y78.2 F6000
G1 X185.0 Y78.2 E5.3216 F1200
G1 X185.0 Y78.6 F6000
G1 X25.0 Y78.6 E5.3216 F1200
G1 X25.0 Y79.0 F6000
G1 X185.0 Y79.0 E5.3216 F1200
G1 X185.0 Y79.4 F6000
G1 X25.0 Y79.4 E5.3216 F1200
G1 X25.0 Y79.8 F6000
G1 X185.0 Y79.8 E5.3216 F1200
G1 X185.0 Y80.2 F6000
G1 X25.0 Y80.2 E5.3216 F1200
G1 X25.0 Y80.6 F6000
G1 X185.0 Y80.6 E5.3216 F1200
G1 X185.0 Y81.0 F6000
G1 X25.0 Y81.0 E5.3216 F1200
G1 X25.0 Y81.4 F6000
G1 X185.0 Y81.4 E5.3216 F1200
G1 X185.0 Y81.8 F6000
G1 X25.0 Y81.8 E5.3216 F1200
G1 X25.0 Y82.2 F6000
G1 X185.0 Y82.2 E5.3216 F1200
G1 X185.0 Y82.6 F6000
G1 X25.0 Y82.6 E5.3216 F1200
G1 X25.0 Y83.0 F6000
G1 X185.0 Y83.0 E5.3216 F1200
G1 X185.0 Y83.4 F6000
G1 X25.0 Y83.4 E5.3216 F1200
G1 X25.0 Y83.8 F6000
G1 X185.0 Y83.8 E5.3216 F1200
G1 X185.0 Y84.2 F6000
G1 X25.0 Y84.2 E5.3216 F1200
G1 X25.0 Y84.6 F6000
G1 X185.0 Y84.6 E5.3216 F1200
G1 X185.0 Y85.0 F6000
G1 X25.0 Y85.0 E5.3216 F1200
G1 X25.0 Y85.4 F6000
G1 X185.0 Y85.4 E5.3216 F1200
G1 X185.0 Y85.8 F6000
G1 X25.0 Y85.8 E5.3216 F1200
G1 X25.0 Y86.2 F6000
G1 X185.0 Y86.2 E5.3216 F1200
G1 X185.0 Y86.6 F6000
G1 X25.0 Y86.6 E5.3216 F1200
G1 X25.0 Y87.0 F6000
G1 X185.0 Y87.0 E5.3216 F1200
G1 X185.0 Y87.4 F6000
G1 X25.0 Y87.4 E5.3216 F1200
G1 X25.0 Y87.8 F6000
G1 X185.0 Y87.8 E5.3216 F1200
G1 X185.0 Y88.2 F6000
G1 X25.0 Y88.2 E5.3216 F1200
G1 X25.0 Y88.6 F6000
G1 X185.0 Y88.6 E5.3216 F1200
G1 X185.0 Y89.0 F6000
G1 X25.0 Y89.0 E5.3216 F1200
G1 X25.0 Y89.4 F6000
G1 X185.0 Y89.4 E5.3216 F1200
G1 X185.0 Y89.8 F6000
G1 X25.0 Y89.8 E5.3216 F1200
G1 X25.0 Y90.2 F6000
G1 X185.0 Y90.2 E5.3216 F1200
G1 X185.0 Y90.6 F6000
G1 X25.0 Y90.6 E5.3216 F1200
G1 X25.0 Y91.0 F6000
G1 X185.0 Y91.0 E5.3216 F1200
G1 X185.0 Y91.4 F6000
G1 X25.0 Y91.4 E5.3216 F1200
G1 X25.0 Y91.8 F6000
G1 X185.0 Y91.8 E5.3216 F1200
G1 X185.0 Y92.2 F6000
G1 X25.0 Y92.2 E5.3216 F1200
G1 X25.0 Y92.6 F6000
G1 X185.0 Y92.6 E5.3216 F1200
G1 X185.0 Y93.0 F6000
G1 X25.0 Y93.0 E5.3216 F1200
G1 X25.0 Y93.4 F6000
G1 X185.0 Y93.4 E5.3216 F1200
G1 X185.0 Y93.8 F6000
G1 X25.0 Y93.8 E5.3216 F1200
G1 X25.0 Y94.2 F6000
G1 X185.0 Y94.2 E5.3216 F1200
G1 X185.0 Y94.6 F6000
G1 X25.0 Y94.6 E5.3216 F1200
G1 X25.0 Y95.0 F6000
G1 X185.0 Y95.0 E5.3216 F1200
G1 X185.0 Y95.4 F6000
G1 X25.0 Y95.4 E5.3216 F1200
G1 X25.0 Y95.8 F6000
G1 X185.0 Y95.8 E5.3216 F1200
G1 X185.0 Y96.2 F6000
G1 X25.0 Y96.2 E5.3216 F1200
G1 X25.0 Y96.6 F6000
G1 X185.0 Y96.6 E5.3216 F1200
G1 X185.0 Y97.0 F6000
G1 X25.0 Y97.0 E5.3216 F1200
G1 X25.0 Y97.4 F6000
G1 X185.0 Y97.4 E5.3216 F1200
G1 X185.0 Y97.8 F6000
G1 X25.0 Y97.8 E5.3216 F1200
G1 X25.0 Y98.2 F6000
G1 X185.0 Y98.2 E5.3216 F1200
G1 X185.0 Y98.6 F6000
G1 X25.0 Y98.6 E5.3216 F1200
G1 X25.0 Y99.0 F6000
G1 X185.0 Y99.0 E5.3216 F1200
G1 X185.0 Y99.4 F6000
G1 X25.0 Y99.4 E5.3216 F1200
G1 X25.0 Y99.8 F6000
G1 X185.0 Y99.8 E5.3216 F1200
G1 X185.0 Y100.2 F6000
G1 X25.0 Y100.2 E5.3216 F1200
G1 X25.0 Y100.6 F6000
G1 X185.0 Y100.6 E5.3216 F1200
G1 X185.0 Y101.0 F6000
G1 X25.0 Y101.0 E5.3216 F1200
G1 X25.0 Y101.4 F6000
G1 X185.0 Y101.4 E5.3216 F1200
G1 X185.0 Y101.8 F6000
G1 X25.0 Y101.8 E5.3216 F1200
G1 X25.0 Y102.2 F6000
G1 X185.0 Y102.2 E5.3216 F1200
G1 X185.0 Y102.6 F6000
G1 X25.0 Y102.6 E5.3216 F1200
G1 X25.0 Y103.0 F6000
G1 X185.0 Y103.0 E5.3216 F1200
G1 X185.0 Y103.4 F6000
G1 X25.0 Y103.4 E5.3216 F1200
G1 X25.0 Y103.8 F6000
G1 X185.0 Y103.8 E5.3216 F1200
G1 X185.0 Y104.2 F6000
G1 X25.0 Y104.2 E5.3216 F1200
G1 X25.0 Y104.6 F6000
G1 X185.0 Y104.6 E5.3216 F1200
G1 X185.0 Y105.0 F6000
G1 X25.0 Y105.0 E5.3216 F1200
G1 X25.0 Y105.4 F6000
G1 X185.0 Y105.4 E5.3216 F1200
G1 X185.0 Y105.8 F6000
G1 X25.0 Y105.8 E5.3216 F1200
G1 X25.0 Y106.2 F6000
G1 X185.0 Y106.2 E5.3216 F1200
G1 X185.0 Y106.6 F6000
G1 X25.0 Y106.6 E5.3216 F1200
G1 X25.0 Y107.0 F6000
G1 X185.0 Y107.0 E5.3216 F1200
G1 X185.0 Y107.4 F6000
G1 X25.0 Y107.4 E5.3216 F1200
G1 X25.0 Y107.8 F6000
G1 X185.0 Y107.8 E5.3216 F1200
G1 X185.0 Y108.2 F6000
G1 X25.0 Y108.2 E5.3216 F1200
G1 X25.0 Y108.6 F6000
G1 X185.0 Y108.6 E5.3216 F1200
G1 X185.0 Y109.0 F6000
G1 X25.0 Y109.0 E5.3216 F1200
G1 X25.0 Y109.4 F6000
G1 X185.0 Y109.4 E5.3216 F1200
G1 X185.0 Y109.8 F6000
G1 X25.0 Y109.8 E5.3216 F1200
G1 X25.0 Y110.2 F6000
G1 X185.0 Y110.2 E5.3216 F1200
G1 X185.0 Y110.6 F6000
G1 X25.0 Y110.6 E5.3216 F1200
G1 X25.0 Y111.0 F6000
G1 X185.0 Y111.0 E5.3216 F1200
G1 X185.0 Y111.4 F6000
G1 X25.0 Y111.4 E5.3216 F1200
G1 X25.0 Y111.8 F6000
G1 X185.0 Y111.8 E5.3216 F1200
G1 X185.0 Y112.2 F6000
G1 X25.0 Y112.2 E5.3216 F1200
G1 X25.0 Y112.6 F6000
G1 X185.0 Y112.6 E5.3216 F1200
G1 X185.0 Y113.0 F6000
G1 X25.0 Y113.0 E5.3216 F1200
G1 X25.0 Y113.4 F6000
G1 X185.0 Y113.4 E5.3216 F1200
G1 X185.0 Y113.8 F6000
G1 X25.0 Y113.8 E5.3216 F1200
G1 X25.0 Y114.2 F6000
G1 X185.0 Y114.2 E5.3216 F1200
G1 X185.0 Y114.6 F6000
G1 X25.0 Y114.6 E5.3216 F1200
G1 X25.0 Y115.0 F6000
G1 X185.0 Y115.0 E5.3216 F1200
G1 X185.0 Y115.4 F6000
G1 X25.0 Y115.4 E5.3216 F1200
G1 X25.0 Y115.8 F6000
G1 X185.0 Y115.8 E5.3216 F1200
G1 X185.0 Y116.2 F6000
G1 X25.0 Y116.2 E5.3216 F1200
G1 X25.0 Y116.6 F6000
G1 X185.0 Y116.6 E5.3216 F1200
G1 X185.0 Y117.0 F6000
G1 X25.0 Y117.0 E5.3216 F1200
G1 X25.0 Y117.4 F6000
G1 X185.0 Y117.4 E5.3216 F1200
G1 X185.0 Y117.8 F6000
G1 X25.0 Y117.8 E5.3216 F1200
G1 X25.0 Y118.2 F6000
G1 X185.0 Y118.2 E5.3216 F1200
G1 X185.0 Y118.6 F6000
G1 X25.0 Y118.6 E5.3216 F1200
G1 X25.0 Y119.0 F6000
G1 X185.0 Y119.0 E5.3216 F1200
G1 X185.0 Y119.4 F6000
G1 X25.0 Y119.4 E5.3216 F1200
G1 X25.0 Y119.8 F6000
G1 X185.0 Y119.8 E5.3216 F1200
G1 X185.0 Y120.2 F6000
G1 X25.0 Y120.2 E5.3216 F1200
G1 X25.0 Y120.6 F6000
G1 X185.0 Y120.6 E5.3216 F1200
G1 X185.0 Y121.0 F6000
G1 X25.0 Y121.0 E5.3216 F1200
G1 X25.0 Y121.4 F6000
G1 X185.0 Y121.4 E5.3216 F1200
G1 X185.0 Y121.8 F6000
G1 X25.0 Y121.8 E5.3216 F1200
G1 X25.0 Y122.2 F6000
G1 X185.0 Y122.2 E5.3216 F1200
G1 X185.0 Y122.6 F6000
G1 X25.0 Y122.6 E5.3216 F1200
G1 X25.0 Y123.0 F6000
G1 X185.0 Y123.0 E5.3216 F1200
G1 X185.0 Y123.4 F6000
G1 X25.0 Y123.4 E5.3216 F1200
G1 X25.0 Y123.8 F6000
G1 X185.0 Y123.8 E5.3216 F1200
G1 X185.0 Y124.2 F6000
G1 X25.0 Y124.2 E5.3216 F1200
G1 X25.0 Y124.6 F6000
G1 X185.0 Y124.6 E5.3216 F1200
G1 X185.0 Y125.0 F6000
G1 X25.0 Y125.0 E5.3216 F1200
G1 X25.0 Y125.4 F6000
G1 X185.0 Y125.4 E5.3216 F1200
G1 X185.0 Y125.8 F6000
G1 X25.0 Y125.8 E5.3216 F1200
G1 X25.0 Y126.2 F6000
G1 X185.0 Y126.2 E5.3216 F1200
G1 X185.0 Y126.6 F6000
G1 X25.0 Y126.6 E5.3216 F1200
G1 X25.0 Y127.0 F6000
G1 X185.0 Y127.0 E5.3216 F1200
G1 X185.0 Y127.4 F6000
G1 X25.0 Y127.4 E5.3216 F1200
G1 X25.0 Y127.8 F6000
G1 X185.0 Y127.8 E5.3216 F1200
G1 X185.0 Y128.2 F6000
G1 X25.0 Y128.2 E5.3216 F1200
G1 X25.0 Y128.6 F6000
G1 X185.0 Y128.6 E5.3216 F1200
G1 X185.0 Y129.0 F6000
G1 X25.0 Y129.0 E5.3216 F1200
G1 X25.0 Y129.4 F6000
G1 X185.0 Y129.4 E5.3216 F1200
G1 X185.0 Y129.8 F6000
G1 X25.0 Y129.8 E5.3216 F1200
G1 X25.0 Y130.2 F6000
G1 X185.0 Y130.2 E5.3216 F1200
G1 X185.0 Y130.6 F6000
G1 X25.0 Y130.6 E5.3216 F1200
G1 X25.0 Y131.0 F6000
G1 X185.0 Y131.0 E5.3216 F1200
G1 X185.0 Y131.4 F6000
G1 X25.0 Y131.4 E5.3216 F1200
G1 X25.0 Y131.8 F6000
G1 X185.0 Y131.8 E5.3216 F1200
G1 X185.0 Y132.2 F6000
G1 X25.0 Y132.2 E5.3216 F1200
G1 X25.0 Y132.6 F6000
G1 X185.0 Y132.6 E5.3216 F1200
G1 X185.0 Y133.0 F6000
G1 X25.0 Y133.0 E5.3216 F1200
G1 X25.0 Y133.4 F6000
G1 X185.0 Y133.4 E5.3216 F1200
G1 X185.0 Y133.8 F6000
G1 X25.0 Y133.8 E5.3216 F1200
G1 X25.0 Y134.2 F6000
G1 X185.0 Y134.2 E5.3216 F1200
G1 X185.0 Y134.6 F6000
G1 X25.0 Y134.6 E5.3216 F1200
G1 X25.0 Y135.0 F6000
G1 X185.0 Y135.0 E5.3216 F1200
G1 X185.0 Y135.4 F6000
G1 X25.0 Y135.4 E5.3216 F1200
G1 X25.0 Y135.8 F6000
G1 X185.0 Y135.8 E5.3216 F1200
G1 X185.0 Y136.2 F6000
G1 X25.0 Y136.2 E5.3216 F1200
G1 X25.0 Y136.6 F6000
G1 X185.0 Y136.6 E5.3216 F1200
G1 X185.0 Y137.0 F6000
G1 X25.0 Y137.0 E5.3216 F1200
G1 X25.0 Y137.4 F6000
G1 X185.0 Y137.4 E5.3216 F1200
G1 X185.0 Y137.8 F6000
G1 X25.0 Y137.8 E5.3216 F1200
G1 X25.0 Y138.2 F6000
G1 X185.0 Y138.2 E5.3216 F1200
G1 X185.0 Y138.6 F6000
G1 X25.0 Y138.6 E5.3216 F1200
G1 X25.0 Y139.0 F6000
G1 X185.0 Y139.0 E5.3216 F1200
G1 X185.0 Y139.4 F6000
G1 X25.0 Y139.4 E5.3216 F1200
G1 X25.0 Y139.8 F6000
G1 X185.0 Y139.8 E5.3216 F1200
G1 X185.0 Y140.2 F6000
G1 X25.0 Y140.2 E5.3216 F1200
G1 X25.0 Y140.6 F6000
G1 X185.0 Y140.6 E5.3216 F1200
G1 X185.0 Y141.0 F6000
G1 X25.0 Y141.0 E5.3216 F1200
G1 X25.0 Y141.4 F6000
G1 X185.0 Y141.4 E5.3216 F1200
G1 X185.0 Y141.8 F6000
G1 X25.0 Y141.8 E5.3216 F1200
G1 X25.0 Y142.2 F6000
G1 X185.0 Y142.2 E5.3216 F1200
G1 X185.0 Y142.6 F6000
G1 X25.0 Y142.6 E5.3216 F1200
G1 X25.0 Y143.0 F6000
G1 X185.0 Y143.0 E5.3216 F1200
G1 X185.0 Y143.4 F6000
G1 X25.0 Y143.4 E5.3216 F1200
G1 X25.0 Y143.8 F6000
G1 X185.0 Y143.8 E5.3216 F1200
G1 X185.0 Y144.2 F6000
G1 X25.0 Y144.2 E5.3216 F1200
G1 X25.0 Y144.6 F6000
G1 X185.0 Y144.6 E5.3216 F1200
G1 X185.0 Y145.0 F6000
G1 X25.0 Y145.0 E5.3216 F1200
G1 X25.0 Y145.4 F6000
G1 X185.0 Y145.4 E5.3216 F1200
G1 X185.0 Y145.8 F6000
G1 X25.0 Y145.8 E5.3216 F1200
G1 X25.0 Y146.2 F6000
G1 X185.0 Y146.2 E5.3216 F1200
G1 X185.0 Y146.6 F6000
G1 X25.0 Y146.6 E5.3216 F1200
G1 X25.0 Y147.0 F6000
G1 X185.0 Y147.0 E5.3216 F1200
G1 X185.0 Y147.4 F6000
G1 X25.0 Y147.4 E5.3216 F1200
G1 X25.0 Y147.8 F6000
G1 X185.0 Y147.8 E5.3216 F1200
G1 X185.0 Y148.2 F6000
G1 X25.0 Y148.2 E5.3216 F1200
G1 X25.0 Y148.6 F6000
G1 X185.0 Y148.6 E5.3216 F1200
G1 X185.0 Y149.0 F6000
G1 X25.0 Y149.0 E5.3216 F1200
G1 X25.0 Y149.4 F6000
G1 X185.0 Y149.4 E5.3216 F1200
G1 X185.0 Y149.8 F6000
G1 X25.0 Y149.8 E5.3216 F1200
G1 X25.0 Y150.2 F6000
G1 X185.0 Y150.2 E5.3216 F1200
G1 X185.0 Y150.6 F6000
G1 X25.0 Y150.6 E5.3216 F1200
G1 X25.0 Y151.0 F6000
G1 X185.0 Y151.0 E5.3216 F1200
G1 X185.0 Y151.4 F6000
G1 X25.0 Y151.4 E5.3216 F1200
G1 X25.0 Y151.8 F6000
G1 X185.0 Y151.8 E5.3216 F1200
G1 X185.0 Y152.2 F6000
G1 X25.0 Y152.2 E5.3216 F1200
G1 X25.0 Y152.6 F6000
G1 X185.0 Y152.6 E5.3216 F1200
G1 X185.0 Y153.0 F6000
G1 X25.0 Y153.0 E5.3216 F1200
G1 X25.0 Y153.4 F6000
G1 X185.0 Y153.4 E5.3216 F1200
G1 X185.0 Y153.8 F6000
G1 X25.0 Y153.8 E5.3216 F1200
G1 X25.0 Y154.2 F6000
G1 X185.0 Y154.2 E5.3216 F1200
G1 X185.0 Y154.6 F6000
G1 X25.0 Y154.6 E5.3216 F1200
G1 X25.0 Y155.0 F6000
G1 X185.0 Y155.0 E5.3216 F1200
G1 X185.0 Y155.4 F6000
G1 X25.0 Y155.4 E5.3216 F1200
G1 X25.0 Y155.8 F6000
G1 X185.0 Y155.8 E5.3216 F1200
G1 X185.0 Y156.2 F6000
G1 X25.0 Y156.2 E5.3216 F1200
G1 X25.0 Y156.6 F6000
G1 X185.0 Y156.6 E5.3216 F1200
G1 X185.0 Y157.0 F6000
G1 X25.0 Y157.0 E5.3216 F1200
G1 X25.0 Y157.4 F6000
G1 X185.0 Y157.4 E5.3216 F1200
G1 X185.0 Y157.8 F6000
G1 X25.0 Y157.8 E5.3216 F1200
G1 X25.0 Y158.2 F6000
G1 X185.0 Y158.2 E5.3216 F1200
G1 X185.0 Y158.6 F6000
G1 X25.0 Y158.6 E5.3216 F1200
G1 X25.0 Y159.0 F6000
G1 X185.0 Y159.0 E5.3216 F1200
G1 X185.0 Y159.4 F6000
G1 X25.0 Y159.4 E5.3216 F1200
G1 X25.0 Y159.8 F6000
G1 X185.0 Y159.8 E5.3216 F1200
G1 X185.0 Y160.2 F6000
G1 X25.0 Y160.2 E5.3216 F1200
G1 X25.0 Y160.6 F6000
G1 X185.0 Y160.6 E5.3216 F1200
G1 X185.0 Y161.0 F6000
G1 X25.0 Y161.0 E5.3216 F1200
G1 X25.0 Y161.4 F6000
G1 X185.0 Y161.4 E5.3216 F1200
G1 X185.0 Y161.8 F6000
G1 X25.0 Y161.8 E5.3216 F1200
G1 X25.0 Y162.2 F6000
G1 X185.0 Y162.2 E5.3216 F1200
G1 X185.0 Y162.6 F6000
G1 X25.0 Y162.6 E5.3216 F1200
G1 X25.0 Y163.0 F6000
G1 X185.0 Y163.0 E5.3216 F1200
G1 X185.0 Y163.4 F6000
G1 X25.0 Y163.4 E5.3216 F1200
G1 X25.0 Y163.8 F6000
G1 X185.0 Y163.8 E5.3216 F1200
G1 X185.0 Y164.2 F6000
G1 X25.0 Y164.2 E5.3216 F1200
G1 X25.0 Y164.6 F6000
G1 X185.0 Y164.6 E5.3216 F1200
G1 X185.0 Y165.0 F6000
G1 X25.0 Y165.0 E5.3216 F1200
G1 X25.0 Y165.4 F6000
G1 X185.0 Y165.4 E5.3216 F1200
G1 X185.0 Y165.8 F6000
G1 X25.0 Y165.8 E5.3216 F1200
G1 X25.0 Y166.2 F6000
G1 X185.0 Y166.2 E5.3216 F1200
G1 X185.0 Y166.6 F6000
G1 X25.0 Y166.6 E5.3216 F1200
G1 X25.0 Y167.0 F6000
G1 X185.0 Y167.0 E5.3216 F1200
G1 X185.0 Y167.4 F6000
G1 X25.0 Y167.4 E5.3216 F1200
G1 X25.0 Y167.8 F6000
G1 X185.0 Y167.8 E5.3216 F1200
G1 X185.0 Y168.2 F6000
G1 X25.0 Y168.2 E5.3216 F1200
G1 X25.0 Y168.6 F6000
G1 X185.0 Y168.6 E5.3216 F1200
G1 X185.0 Y169.0 F6000
G1 X25.0 Y169.0 E5.3216 F1200
G1 X25.0 Y169.4 F6000
G1 X185.0 Y169.4 E5.3216 F1200
G1 X185.0 Y169.8 F6000
G1 X25.0 Y169.8 E5.3216 F1200
G1 X25.0 Y170.2 F6000
G1 X185.0 Y170.2 E5.3216 F1200
G1 X185.0 Y170.6 F6000
G1 X25.0 Y170.6 E5.3216 F1200
G1 X25.0 Y171.0 F6000
G1 X185.0 Y171.0 E5.3216 F1200
G1 X185.0 Y171.4 F6000
G1 X25.0 Y171.4 E5.3216 F1200
G1 X25.0 Y171.8 F6000
G1 X185.0 Y171.8 E5.3216 F1200
G1 X185.0 Y172.2 F6000
G1 X25.0 Y172.2 E5.3216 F1200
G1 X25.0 Y172.6 F6000
G1 X185.0 Y172.6 E5.3216 F1200
G1 X185.0 Y173.0 F6000
G1 X25.0 Y173.0 E5.3216 F1200
G1 X25.0 Y173.4 F6000
G1 X185.0 Y173.4 E5.3216 F1200
G1 X185.0 Y173.8 F6000
G1 X25.0 Y173.8 E5.3216 F1200
G1 X25.0 Y174.2 F6000
G1 X185.0 Y174.2 E5.3216 F1200
G1 X185.0 Y174.6 F6000
G1 X25.0 Y174.6 E5.3216 F1200
G1 X25.0 Y175.0 F6000
G1 X185.0 Y175.0 E5.3216 F1200
G1 X185.0 Y175.4 F6000
G1 X25.0 Y175.4 E5.3216 F1200
G1 X25.0 Y175.8 F6000
G1 X185.0 Y175.8 E5.3216 F1200
G1 X185.0 Y176.2 F6000
G1 X25.0 Y176.2 E5.3216 F1200
G1 X25.0 Y176.6 F6000
G1 X185.0 Y176.6 E5.3216 F1200
G1 X185.0 Y177.0 F6000
G1 X25.0 Y177.0 E5.3216 F1200
G1 X25.0 Y177.4 F6000
G1 X185.0 Y177.4 E5.3216 F1200
G1 X185.0 Y177.8 F6000
G1 X25.0 Y177.8 E5.3216 F1200
G1 X25.0 Y178.2 F6000
G1 X185.0 Y178.2 E5.3216 F1200
G1 X185.0 Y178.6 F6000
G1 X25.0 Y178.6 E5.3216 F1200
G1 X25.0 Y179.0 F6000
G1 X185.0 Y179.0 E5.3216 F1200
G1 X185.0 Y179.4 F6000
G1 X25.0 Y179.4 E5.3216 F1200
G1 X25.0 Y179.8 F6000
G1 X185.0 Y179.8 E5.3216 F1200
G1 X185.0 Y180.2 F6000
G1 X25.0 Y180.2 E5.3216 F1200
G1 X25.0 Y180.6 F6000
G1 X185.0 Y180.6 E5.3216 F1200
G1 X185.0 Y181.0 F6000
G1 X25.0 Y181.0 E5.3216 F1200
G1 X25.0 Y181.4 F6000
G1 X185.0 Y181.4 E5.3216 F1200
G1 X185.0 Y181.8 F6000
G1 X25.0 Y181.8 E5.3216 F1200
G1 X25.0 Y182.2 F6000
G1 X185.0 Y182.2 E5.3216 F1200
G1 X185.0 Y182.6 F6000
G1 X25.0 Y182.6 E5.3216 F1200
G1 X25.0 Y183.0 F6000
G1 X185.0 Y183.0 E5.3216 F1200
G1 X185.0 Y183.4 F6000
G1 X25.0 Y183.4 E5.3216 F1200
G1 X25.0 Y183.8 F6000
G1 X185.0 Y183.8 E5.3216 F1200
G1 X185.0 Y184.2 F6000
G1 X25.0 Y184.2 E5.3216 F1200
G1 X25.0 Y184.6 F6000
G1 X185.0 Y184.6 E5.3216 F1200
G1 Z5 F3000
M104 S0
M140 S0
M107
M84